EUTELSAT QUANTUM        
1 49056U 21069B   25290.13604208  .00000115  00000+0  00000+0 0  9999
2 49056   0.0468  56.2902 0002722 174.1697 252.1138  1.00271655 15494
EUTELSAT KONNECT VHTS   
1 53765U 22110A   25289.91460777  .00000006  00000+0  00000+0 0  9993
2 53765   0.0565  96.6423 0002739  95.1864 165.8160  1.00272083  4383
EUTELSAT HOTBIRD 13F    
1 54048U 22134A   25290.12919538  .00000076  00000+0  00000+0 0  9990
2 54048   0.0573 281.5842 0002190  76.3989  87.4124  1.00270630 10930
EUTELSAT HOTBIRD 13G    
1 54225U 22146A   25290.12919538  .00000076  00000+0  00000+0 0  9990
2 54225   0.0494 235.8687 0001893 305.0012 264.5333  1.00270543  5023
EUTELSAT 10B            
1 54259U 22157A   25289.91512778  .00000056  00000+0  00000+0 0  9997
2 54259   0.0587  93.2934 0001569  46.0528 225.7559  1.00269734 10584
EUTELSAT 36D            
1 59346U 24059A   25290.13370207  .00000145  00000+0  00000+0 0  9996
2 59346   0.0213 219.8470 0000151 106.8846 143.1336  1.00271744  5716
